WORLDVIEW-1 (WV-1)      
1 32060U 07041A   26188.18182763  .00004244  00000+0  17557-3 0  9995
2 32060  97.3892 307.6432 0000952 260.9094  99.2036 15.24497852 45928
WORLDVIEW-2 (WV-2)      
1 35946U 09055A   26188.48288931  .00000083  00000+0  41892-4 0  9992
2 35946  98.4759 261.6558 0004964 148.9192 211.2289 14.37905501878565
WORLDVIEW-3 (WV-3)      
1 40115U 14048A   26188.51600422  .00000712  00000+0  89607-4 0  9996
2 40115  97.8559 263.0678 0000690 167.0135 193.1098 14.85056010644922
