{"fetched_at":"2026-07-07T18:29:56.867Z","source":"https://celestrak.org/NORAD/elements/gp.php?NAME=WORLDVIEW&FORMAT=JSON","constellation":"worldview","records":[{"OBJECT_NAME":"WORLDVIEW-1 (WV-1)","OBJECT_ID":"2007-041A","EPOCH":"2026-07-07T04:21:49.907232","CLASSIFICATION_TYPE":"U","MEAN_MOTION":15.24497852,"ECCENTRICITY":0.0000952,"INCLINATION":97.3892,"RA_OF_ASC_NODE":307.6432,"ARG_OF_PERICENTER":260.9094,"MEAN_ANOMALY":99.2036,"EPHEMERIS_TYPE":0,"NORAD_CAT_ID":32060,"ELEMENT_SET_NO":999,"REV_AT_EPOCH":4592,"BSTAR":0.00017557,"MEAN_MOTION_DOT":0.00004244,"MEAN_MOTION_DDOT":0},{"OBJECT_NAME":"WORLDVIEW-2 (WV-2)","OBJECT_ID":"2009-055A","EPOCH":"2026-07-07T11:35:21.636384","CLASSIFICATION_TYPE":"U","MEAN_MOTION":14.37905501,"ECCENTRICITY":0.0004964,"INCLINATION":98.4759,"RA_OF_ASC_NODE":261.6558,"ARG_OF_PERICENTER":148.9192,"MEAN_ANOMALY":211.2289,"EPHEMERIS_TYPE":0,"NORAD_CAT_ID":35946,"ELEMENT_SET_NO":999,"REV_AT_EPOCH":87856,"BSTAR":0.000041892,"MEAN_MOTION_DOT":8.3e-7,"MEAN_MOTION_DDOT":0},{"OBJECT_NAME":"WORLDVIEW-3 (WV-3)","OBJECT_ID":"2014-048A","EPOCH":"2026-07-07T12:23:02.764608","CLASSIFICATION_TYPE":"U","MEAN_MOTION":14.8505601,"ECCENTRICITY":0.000069,"INCLINATION":97.8559,"RA_OF_ASC_NODE":263.0678,"ARG_OF_PERICENTER":167.0135,"MEAN_ANOMALY":193.1098,"EPHEMERIS_TYPE":0,"NORAD_CAT_ID":40115,"ELEMENT_SET_NO":999,"REV_AT_EPOCH":64492,"BSTAR":0.000089607,"MEAN_MOTION_DOT":0.00000712,"MEAN_MOTION_DDOT":0}]}
